start=new Date('2023-01-06T00:00:00.000Z').valueOf();
sats=[{"SITE":"AFETR","MEAN_MOTION_DDOT":"0.0000000000000","TLE_LINE1":"1 53781U 22111J   23005.60401464  .00000946  00000-0  77502-4 0  9990","NORAD_CAT_ID":"53781","MEAN_MOTION_DOT":"0.00000946","OBJECT_NAME":"STARLINK-4462","LAUNCH_DATE":"2022-09-11","SEMIMAJOR_AXIS":"6917.814","RA_OF_ASC_NODE":"77.4470","MEAN_ANOMALY":"325.3462","DECAY_DATE":null,"MEAN_ELEMENT_THEORY":"SGP4","EPOCH":"2023-01-05T14:29:46.864896","FILE":"3732963","ARG_OF_PERICENTER":"34.7665","TIME_SYSTEM":"UTC","OBJECT_ID":"2022-111J","REV_AT_EPOCH":"1871","TLE_LINE2":"2 53781  53.2176  77.4470 0002072  34.7665 325.3462 15.08861745 18718","INCLINATION":"53.2176","GP_ID":"222291730","BSTAR":"0.00007750200000","ELEMENT_SET_NO":"999","REF_FRAME":"TEME","CENTER_NAME":"EARTH","RCS_SIZE":"LARGE","CLASSIFICATION_TYPE":"U","PERIAPSIS":"538.246","PERIOD":"95.436","ECCENTRICITY":"0.00020720","APOAPSIS":"541.112","MEAN_MOTION":"15.08861745","COUNTRY_CODE":"US","OBJECT_TYPE":"PAYLOAD","EPHEMERIS_TYPE":"0"},{"MEAN_MOTION_DDOT":"0.0000000000000","TLE_LINE1":"1 53782U 22111K   23005.61138336  .00001245  00000-0  96268-4 0  9990","SITE":"AFETR","MEAN_MOTION_DOT":"0.00001245","NORAD_CAT_ID":"53782","MEAN_ANOMALY":"321.5509","OBJECT_NAME":"STARLINK-4679","LAUNCH_DATE":"2022-09-11","SEMIMAJOR_AXIS":"6917.809","RA_OF_ASC_NODE":"77.4990","DECAY_DATE":null,"EPOCH":"2023-01-05T14:40:23.522304","MEAN_ELEMENT_THEORY":"SGP4","OBJECT_ID":"2022-111K","REV_AT_EPOCH":"1871","FILE":"3732963","ARG_OF_PERICENTER":"38.5653","TIME_SYSTEM":"UTC","TLE_LINE2":"2 53782  53.2193  77.4990 0002388  38.5653 321.5509 15.08863260 18718","INCLINATION":"53.2193","GP_ID":"222291963","REF_FRAME":"TEME","CENTER_NAME":"EARTH","ELEMENT_SET_NO":"999","BSTAR":"0.00009626800000","CLASSIFICATION_TYPE":"U","RCS_SIZE":"LARGE","PERIAPSIS":"538.022","PERIOD":"95.436","ECCENTRICITY":"0.00023880","COUNTRY_CODE":"US","APOAPSIS":"541.326","MEAN_MOTION":"15.08863260","OBJECT_TYPE":"PAYLOAD","EPHEMERIS_TYPE":"0"},{"TLE_LINE2":"2 53783  53.2182  77.4020 0002506  28.4992 331.6136 15.08869277 18719","INCLINATION":"53.2182","OBJECT_ID":"2022-111L","REV_AT_EPOCH":"1871","ARG_OF_PERICENTER":"28.4992","FILE":"3732963","TIME_SYSTEM":"UTC","DECAY_DATE":null,"EPOCH":"2023-01-05T14:19:10.473600","MEAN_ELEMENT_THEORY":"SGP4","MEAN_ANOMALY":"331.6136","OBJECT_NAME":"STARLINK-4536","RA_OF_ASC_NODE":"77.4020","LAUNCH_DATE":"2022-09-11","SEMIMAJOR_AXIS":"6917.791","MEAN_MOTION_DOT":"0.00004529","NORAD_CAT_ID":"53783","MEAN_MOTION_DDOT":"0.0000000000000","TLE_LINE1":"1 53783U 22111L   23005.59664900  .00004529  00000-0  30226-3 0  9998","SITE":"AFETR","OBJECT_TYPE":"PAYLOAD","EPHEMERIS_TYPE":"0","COUNTRY_CODE":"US","APOAPSIS":"541.390","MEAN_MOTION":"15.08869277","ECCENTRICITY":"0.00025060","PERIAPSIS":"537.922","PERIOD":"95.436","CLASSIFICATION_TYPE":"U","RCS_SIZE":"LARGE","REF_FRAME":"TEME","CENTER_NAME":"EARTH","BSTAR":"0.00030226000000","ELEMENT_SET_NO":"999","GP_ID":"222292656"},{"GP_ID":"222292884","BSTAR":"0.00023619000000","ELEMENT_SET_NO":"999","REF_FRAME":"TEME","CENTER_NAME":"EARTH","RCS_SIZE":"LARGE","CLASSIFICATION_TYPE":"U","PERIAPSIS":"538.110","PERIOD":"95.437","ECCENTRICITY":"0.00023580","APOAPSIS":"541.372","MEAN_MOTION":"15.08841431","COUNTRY_CODE":"US","EPHEMERIS_TYPE":"0","OBJECT_TYPE":"PAYLOAD","SITE":"AFETR","MEAN_MOTION_DDOT":"0.0000000000000","TLE_LINE1":"1 53784U 22111M   23005.67397472  .00003473  00000-0  23619-3 0  9990","NORAD_CAT_ID":"53784","MEAN_MOTION_DOT":"0.00003473","OBJECT_NAME":"STARLINK-4687","LAUNCH_DATE":"2022-09-11","RA_OF_ASC_NODE":"77.1835","SEMIMAJOR_AXIS":"6917.876","MEAN_ANOMALY":"320.3893","DECAY_DATE":null,"MEAN_ELEMENT_THEORY":"SGP4","EPOCH":"2023-01-05T16:10:31.415808","FILE":"3732963","ARG_OF_PERICENTER":"39.7271","TIME_SYSTEM":"UTC","OBJECT_ID":"2022-111M","REV_AT_EPOCH":"1872","TLE_LINE2":"2 53784  53.2190  77.1835 0002358  39.7271 320.3893 15.08841431 18728","INCLINATION":"53.2190"},{"TLE_LINE2":"2 53786  53.2174  66.2086 0001739  41.5341 304.0502 15.11156175  1300","INCLINATION":"53.2174","ARG_OF_PERICENTER":"41.5341","FILE":"3732963","TIME_SYSTEM":"UTC","OBJECT_ID":"2022-111P","REV_AT_EPOCH":"130","OBJECT_NAME":"STARLINK-4631","SEMIMAJOR_AXIS":"6910.810","LAUNCH_DATE":"2022-09-11","RA_OF_ASC_NODE":"66.2086","MEAN_ANOMALY":"304.0502","DECAY_DATE":null,"MEAN_ELEMENT_THEORY":"SGP4","EPOCH":"2023-01-05T20:00:01.000224","SITE":"AFETR","MEAN_MOTION_DDOT":"0.0000000000000","TLE_LINE1":"1 53786U 22111P   23005.83334491 -.00436955  00000-0 -27346-1 0  9998","NORAD_CAT_ID":"53786","MEAN_MOTION_DOT":"-0.00436955","APOAPSIS":"533.877","MEAN_MOTION":"15.11156175","COUNTRY_CODE":"US","OBJECT_TYPE":"PAYLOAD","EPHEMERIS_TYPE":"0","PERIAPSIS":"531.473","PERIOD":"95.291","ECCENTRICITY":"0.00017390","RCS_SIZE":"LARGE","CLASSIFICATION_TYPE":"U","GP_ID":"222291258","ELEMENT_SET_NO":"999","BSTAR":"-0.02734600000000","REF_FRAME":"TEME","CENTER_NAME":"EARTH"},{"OBJECT_TYPE":"PAYLOAD","EPHEMERIS_TYPE":"0","APOAPSIS":"541.458","MEAN_MOTION":"15.08865861","COUNTRY_CODE":"US","ECCENTRICITY":"0.00025900","PERIAPSIS":"537.875","PERIOD":"95.436","RCS_SIZE":"LARGE","CLASSIFICATION_TYPE":"U","BSTAR":"0.00040111000000","ELEMENT_SET_NO":"999","REF_FRAME":"TEME","CENTER_NAME":"EARTH","GP_ID":"222266435","TLE_LINE2":"2 53787  53.2178  77.9515 0002590  34.3353 325.7806 15.08865861 18692","INCLINATION":"53.2178","FILE":"3732939","ARG_OF_PERICENTER":"34.3353","TIME_SYSTEM":"UTC","OBJECT_ID":"2022-111Q","REV_AT_EPOCH":"1869","DECAY_DATE":null,"EPOCH":"2023-01-05T10:57:48.474720","MEAN_ELEMENT_THEORY":"SGP4","OBJECT_NAME":"STARLINK-4743","RA_OF_ASC_NODE":"77.9515","LAUNCH_DATE":"2022-09-11","SEMIMAJOR_AXIS":"6917.801","MEAN_ANOMALY":"325.7806","NORAD_CAT_ID":"53787","MEAN_MOTION_DOT":"0.00006106","SITE":"AFETR","MEAN_MOTION_DDOT":"0.0000000000000","TLE_LINE1":"1 53787U 22111Q   23005.45681105  .00006106  00000-0  40111-3 0  9990"},{"SITE":"AFETR","TLE_LINE1":"1 53789U 22111S   23005.45039005  .00002386  00000-0  16792-3 0  9992","MEAN_MOTION_DDOT":"0.0000000000000","NORAD_CAT_ID":"53789","MEAN_MOTION_DOT":"0.00002386","RA_OF_ASC_NODE":"77.9144","LAUNCH_DATE":"2022-09-11","SEMIMAJOR_AXIS":"6917.833","OBJECT_NAME":"STARLINK-4666","MEAN_ANOMALY":"333.0968","MEAN_ELEMENT_THEORY":"SGP4","EPOCH":"2023-01-05T10:48:33.700320","DECAY_DATE":null,"TIME_SYSTEM":"UTC","ARG_OF_PERICENTER":"27.0135","FILE":"3732939","REV_AT_EPOCH":"1868","OBJECT_ID":"2022-111S","INCLINATION":"53.2201","TLE_LINE2":"2 53789  53.2201  77.9144 0002144  27.0135 333.0968 15.08855570 18687","GP_ID":"222264806","ELEMENT_SET_NO":"999","BSTAR":"0.00016792000000","CENTER_NAME":"EARTH","REF_FRAME":"TEME","RCS_SIZE":"LARGE","CLASSIFICATION_TYPE":"U","PERIOD":"95.437","PERIAPSIS":"538.215","ECCENTRICITY":"0.00021440","MEAN_MOTION":"15.08855570","APOAPSIS":"541.181","COUNTRY_CODE":"US","OBJECT_TYPE":"PAYLOAD","EPHEMERIS_TYPE":"0"},{"DECAY_DATE":null,"MEAN_ELEMENT_THEORY":"SGP4","EPOCH":"2023-01-05T14:13:52.223520","OBJECT_NAME":"STARLINK-4734","LAUNCH_DATE":"2022-09-11","RA_OF_ASC_NODE":"77.3831","SEMIMAJOR_AXIS":"6917.806","MEAN_ANOMALY":"327.5021","NORAD_CAT_ID":"53790","MEAN_MOTION_DOT":"0.00000624","SITE":"AFETR","MEAN_MOTION_DDOT":"0.0000000000000","TLE_LINE1":"1 53790U 22111T   23005.59296555  .00000624  00000-0  57288-4 0  9993","TLE_LINE2":"2 53790  53.2175  77.3831 0002353  32.6116 327.5021 15.08864349 18715","INCLINATION":"53.2175","ARG_OF_PERICENTER":"32.6116","FILE":"3732963","TIME_SYSTEM":"UTC","OBJECT_ID":"2022-111T","REV_AT_EPOCH":"1871","RCS_SIZE":"LARGE","CLASSIFICATION_TYPE":"U","BSTAR":"0.00005728800000","ELEMENT_SET_NO":"999","REF_FRAME":"TEME","CENTER_NAME":"EARTH","GP_ID":"222292424","OBJECT_TYPE":"PAYLOAD","EPHEMERIS_TYPE":"0","APOAPSIS":"541.299","MEAN_MOTION":"15.08864349","COUNTRY_CODE":"US","ECCENTRICITY":"0.00023530","PERIAPSIS":"538.043","PERIOD":"95.436"},{"NORAD_CAT_ID":"53792","MEAN_MOTION_DOT":"0.00002130","SITE":"AFETR","MEAN_MOTION_DDOT":"0.0000000000000","TLE_LINE1":"1 53792U 22111V   23005.18816024  .00002130  00000-0  15182-3 0  9999","DECAY_DATE":null,"EPOCH":"2023-01-05T04:30:57.044736","MEAN_ELEMENT_THEORY":"SGP4","OBJECT_NAME":"STARLINK-4739","SEMIMAJOR_AXIS":"6917.812","LAUNCH_DATE":"2022-09-11","RA_OF_ASC_NODE":"79.1157","MEAN_ANOMALY":"328.7438","ARG_OF_PERICENTER":"31.3693","FILE":"3732939","TIME_SYSTEM":"UTC","OBJECT_ID":"2022-111V","REV_AT_EPOCH":"1864","TLE_LINE2":"2 53792  53.2180  79.1157 0002333  31.3693 328.7438 15.08862394 18643","INCLINATION":"53.2180","ELEMENT_SET_NO":"999","BSTAR":"0.00015182000000","REF_FRAME":"TEME","CENTER_NAME":"EARTH","GP_ID":"222265742","RCS_SIZE":"LARGE","CLASSIFICATION_TYPE":"U","ECCENTRICITY":"0.00023330","PERIAPSIS":"538.063","PERIOD":"95.436","EPHEMERIS_TYPE":"0","OBJECT_TYPE":"PAYLOAD","APOAPSIS":"541.291","MEAN_MOTION":"15.08862394","COUNTRY_CODE":"US"},{"TLE_LINE2":"2 53793  53.2177  77.2860 0002413  29.9326 330.1804 15.08853863 18707","INCLINATION":"53.2177","ARG_OF_PERICENTER":"29.9326","FILE":"3732939","TIME_SYSTEM":"UTC","OBJECT_ID":"2022-111W","REV_AT_EPOCH":"1870","OBJECT_NAME":"STARLINK-4728","LAUNCH_DATE":"2022-09-11","RA_OF_ASC_NODE":"77.2860","SEMIMAJOR_AXIS":"6917.838","MEAN_ANOMALY":"330.1804","DECAY_DATE":null,"MEAN_ELEMENT_THEORY":"SGP4","EPOCH":"2023-01-05T13:52:38.796384","SITE":"AFETR","MEAN_MOTION_DDOT":"0.0000000000000","TLE_LINE1":"1 53793U 22111W   23005.57822681  .00002479  00000-0  17373-3 0  9999","NORAD_CAT_ID":"53793","MEAN_MOTION_DOT":"0.00002479","APOAPSIS":"541.372","MEAN_MOTION":"15.08853863","COUNTRY_CODE":"US","EPHEMERIS_TYPE":"0","OBJECT_TYPE":"PAYLOAD","PERIAPSIS":"538.034","PERIOD":"95.437","ECCENTRICITY":"0.00024130","RCS_SIZE":"LARGE","CLASSIFICATION_TYPE":"U","GP_ID":"222265972","ELEMENT_SET_NO":"999","BSTAR":"0.00017373000000","REF_FRAME":"TEME","CENTER_NAME":"EARTH"}];
